[
    {
        "Altitude(m)": 702931.4080093757,
        "Argument of Periapsis(deg)": 0.006834072711976239,
        "Eccentricity": 0.0,
        "Inclination(deg)": 45.0,
        "Latitude(deg)": 4.860212811920195,
        "Longitude(deg)": -10.600493463838866,
        "Mean Anomaly(deg)": 6.919929988488496,
        "RAAN(deg)": 84.99354883512508,
        "Satellite Name": "Constellation 1 374",
        "Satellite Number": 374,
        "Semi-Major Axis(m)": 7083131.272910544,
        "Time(s)": 114
    },
    {
        "Altitude(m)": 702928.1562401563,
        "Argument of Periapsis(deg)": 0.006894020718221645,
        "Eccentricity": 0.0,
        "Inclination(deg)": 45.0,
        "Latitude(deg)": 4.90327632782234,
        "Longitude(deg)": -10.561427231266805,
        "Mean Anomaly(deg)": 6.980631128738396,
        "RAAN(deg)": 84.99349224595952,
        "Satellite Name": "Constellation 1 374",
        "Satellite Number": 374,
        "Semi-Major Axis(m)": 7083131.272910544,
        "Time(s)": 115
    },
    {
        "Altitude(m)": 702924.9252509164,
        "Argument of Periapsis(deg)": 0.006953968724467052,
        "Eccentricity": 0.0,
        "Inclination(deg)": 45.0,
        "Latitude(deg)": 4.946337055737307,
        "Longitude(deg)": -10.52235541558758,
        "Mean Anomaly(deg)": 7.0413322689882945,
        "RAAN(deg)": 84.99343565679395,
        "Satellite Name": "Constellation 1 374",
        "Satellite Number": 374,
        "Semi-Major Axis(m)": 7083131.272910544,
        "Time(s)": 116
    },
    {
        "Altitude(m)": 702921.7150374245,
        "Argument of Periapsis(deg)": 0.007013916730712457,
        "Eccentricity": 0.0,
        "Inclination(deg)": 45.0,
        "Latitude(deg)": 4.989394970098962,
        "Longitude(deg)": -10.48327796776012,
        "Mean Anomaly(deg)": 7.102033409238193,
        "RAAN(deg)": 84.99337906762837,
        "Satellite Name": "Constellation 1 374",
        "Satellite Number": 374,
        "Semi-Major Axis(m)": 7083131.272910544,
        "Time(s)": 117
    },
    {
        "Altitude(m)": 702918.5255953528,
        "Argument of Periapsis(deg)": 0.007073864736957864,
        "Eccentricity": 0.0,
        "Inclination(deg)": 45.0,
        "Latitude(deg)": 5.032450045330351,
        "Longitude(deg)": -10.444194838730754,
        "Mean Anomaly(deg)": 7.162734549488094,
        "RAAN(deg)": 84.9933224784628,
        "Satellite Name": "Constellation 1 374",
        "Satellite Number": 374,
        "Semi-Major Axis(m)": 7083131.272910544,
        "Time(s)": 118
    },
    {
        "Altitude(m)": 702915.3569202953,
        "Argument of Periapsis(deg)": 0.0071338127432032696,
        "Eccentricity": 0.0,
        "Inclination(deg)": 45.0,
        "Latitude(deg)": 5.075502255843303,
        "Longitude(deg)": -10.405106147530175,
        "Mean Anomaly(deg)": 7.223435689737992,
        "RAAN(deg)": 84.99326588929725,
        "Satellite Name": "Constellation 1 374",
        "Satellite Number": 374,
        "Semi-Major Axis(m)": 7083131.272910544,
        "Time(s)": 119
    },
    {
        "Altitude(m)": 702912.209007736,
        "Argument of Periapsis(deg)": 0.007193760749448674,
        "Eccentricity": 0.0,
        "Inclination(deg)": 45.0,
        "Latitude(deg)": 5.118551576039538,
        "Longitude(deg)": -10.36601150888524,
        "Mean Anomaly(deg)": 7.284136829987892,
        "RAAN(deg)": 84.99320930013167,
        "Satellite Name": "Constellation 1 374",
        "Satellite Number": 374,
        "Semi-Major Axis(m)": 7083131.272910544,
        "Time(s)": 120
    },
    {
        "Altitude(m)": 702909.081853088,
        "Argument of Periapsis(deg)": 0.007253708755694079,
        "Eccentricity": 0.0,
        "Inclination(deg)": 45.0,
        "Latitude(deg)": 5.161597980308772,
        "Longitude(deg)": -10.326911041800923,
        "Mean Anomaly(deg)": 7.344837970237778,
        "RAAN(deg)": 84.9931527109661,
        "Satellite Name": "Constellation 1 374",
        "Satellite Number": 374,
        "Semi-Major Axis(m)": 7083131.272910544,
        "Time(s)": 121
    },
    {
        "Altitude(m)": 702905.9754516529,
        "Argument of Periapsis(deg)": 0.0073136567619394854,
        "Eccentricity": 0.0,
        "Inclination(deg)": 45.0,
        "Latitude(deg)": 5.204641443029843,
        "Longitude(deg)": -10.287804697172211,
        "Mean Anomaly(deg)": 7.405539110487677,
        "RAAN(deg)": 84.99309612180052,
        "Satellite Name": "Constellation 1 374",
        "Satellite Number": 374,
        "Semi-Major Axis(m)": 7083131.272910544,
        "Time(s)": 122
    },
    {
        "Altitude(m)": 702902.889798657,
        "Argument of Periapsis(deg)": 0.0073736047681848904,
        "Eccentricity": 0.0,
        "Inclination(deg)": 45.0,
        "Latitude(deg)": 5.247681938570317,
        "Longitude(deg)": -10.248692425880952,
        "Mean Anomaly(deg)": 7.46624025073759,
        "RAAN(deg)": 84.99303953263495,
        "Satellite Name": "Constellation 1 374",
        "Satellite Number": 374,
        "Semi-Major Axis(m)": 7083131.272910544,
        "Time(s)": 123
    },
    {
        "Altitude(m)": 702899.8248892217,
        "Argument of Periapsis(deg)": 0.007433552774430298,
        "Eccentricity": 0.0,
        "Inclination(deg)": 45.0,
        "Latitude(deg)": 5.290719441286305,
        "Longitude(deg)": -10.209574178795881,
        "Mean Anomaly(deg)": 7.5269413909874885,
        "RAAN(deg)": 84.99298294346939,
        "Satellite Name": "Constellation 1 374",
        "Satellite Number": 374,
        "Semi-Major Axis(m)": 7083131.272910544,
        "Time(s)": 124
    },
    {
        "Altitude(m)": 702896.7807183827,
        "Argument of Periapsis(deg)": 0.007493500780675703,
        "Eccentricity": 0.0,
        "Inclination(deg)": 45.0,
        "Latitude(deg)": 5.333753925522526,
        "Longitude(deg)": -10.170449906772388,
        "Mean Anomaly(deg)": 7.587642531237387,
        "RAAN(deg)": 84.99292635430382,
        "Satellite Name": "Constellation 1 374",
        "Satellite Number": 374,
        "Semi-Major Axis(m)": 7083131.272910544,
        "Time(s)": 125
    },
    {
        "Altitude(m)": 702893.75728109,
        "Argument of Periapsis(deg)": 0.007553448786921108,
        "Eccentricity": 0.0,
        "Inclination(deg)": 45.0,
        "Latitude(deg)": 5.3767853656117905,
        "Longitude(deg)": -10.131319728749482,
        "Mean Anomaly(deg)": 7.648343671487287,
        "RAAN(deg)": 84.99286976513825,
        "Satellite Name": "Constellation 1 374",
        "Satellite Number": 374,
        "Semi-Major Axis(m)": 7083131.272910544,
        "Time(s)": 126
    },
    {
        "Altitude(m)": 702890.7545721908,
        "Argument of Periapsis(deg)": 0.007613396793166514,
        "Eccentricity": 0.0,
        "Inclination(deg)": 45.0,
        "Latitude(deg)": 5.419813735876146,
        "Longitude(deg)": -10.092183259361569,
        "Mean Anomaly(deg)": 7.7090448117371855,
        "RAAN(deg)": 84.99281317597269,
        "Satellite Name": "Constellation 1 374",
        "Satellite Number": 374,
        "Semi-Major Axis(m)": 7083131.272910544,
        "Time(s)": 127
    },
    {
        "Altitude(m)": 702887.7725864504,
        "Argument of Periapsis(deg)": 0.007673344799411918,
        "Eccentricity": 0.0,
        "Inclination(deg)": 45.0,
        "Latitude(deg)": 5.4628390106249904,
        "Longitude(deg)": -10.053040617520566,
        "Mean Anomaly(deg)": 7.769745951987072,
        "RAAN(deg)": 84.9927565868071,
        "Satellite Name": "Constellation 1 374",
        "Satellite Number": 374,
        "Semi-Major Axis(m)": 7083131.272910544,
        "Time(s)": 128
    },
    {
        "Altitude(m)": 702884.8113185385,
        "Argument of Periapsis(deg)": 0.007733292805657325,
        "Eccentricity": 0.0,
        "Inclination(deg)": 45.0,
        "Latitude(deg)": 5.50586116415618,
        "Longitude(deg)": -10.01389175402763,
        "Mean Anomaly(deg)": 7.830447092236972,
        "RAAN(deg)": 84.99269999764154,
        "Satellite Name": "Constellation 1 374",
        "Satellite Number": 374,
        "Semi-Major Axis(m)": 7083131.272910544,
        "Time(s)": 129
    },
    {
        "Altitude(m)": 702881.8707630353,
        "Argument of Periapsis(deg)": 0.00779324081190273,
        "Eccentricity": 0.0,
        "Inclination(deg)": 45.0,
        "Latitude(deg)": 5.548880170755611,
        "Longitude(deg)": -9.974736619670082,
        "Mean Anomaly(deg)": 7.891148232486871,
        "RAAN(deg)": 84.99264340847596,
        "Satellite Name": "Constellation 1 374",
        "Satellite Number": 374,
        "Semi-Major Axis(m)": 7083131.272910544,
        "Time(s)": 130
    },
    {
        "Altitude(m)": 702878.9509144227,
        "Argument of Periapsis(deg)": 0.007853188818148135,
        "Eccentricity": 0.0,
        "Inclination(deg)": 45.0,
        "Latitude(deg)": 5.591896004697155,
        "Longitude(deg)": -9.935575165221442,
        "Mean Anomaly(deg)": 7.9518493727367705,
        "RAAN(deg)": 84.9925868193104,
        "Satellite Name": "Constellation 1 374",
        "Satellite Number": 374,
        "Semi-Major Axis(m)": 7083131.272910544,
        "Time(s)": 131
    },
    {
        "Altitude(m)": 702876.0517671034,
        "Argument of Periapsis(deg)": 0.007913136824393542,
        "Eccentricity": 0.0,
        "Inclination(deg)": 45.0,
        "Latitude(deg)": 5.634908640242551,
        "Longitude(deg)": -9.896407341441122,
        "Mean Anomaly(deg)": 8.012550512986682,
        "RAAN(deg)": 84.99253023014484,
        "Satellite Name": "Constellation 1 374",
        "Satellite Number": 374,
        "Semi-Major Axis(m)": 7083131.272910544,
        "Time(s)": 132
    }
]